[{"OBJECT_NAME":"KSM1-C","OBJECT_ID":"2020-081B","EPOCH":"2026-03-09T23:03:28.272960","MEAN_MOTION":15.249265,"ECCENTRICITY":8.294e-5,"INCLINATION":36.8937,"RA_OF_ASC_NODE":310.7323,"ARG_OF_PERICENTER":75.7221,"MEAN_ANOMALY":284.362,"EPHEMERIS_TYPE":0,"CLASSIFICATION_TYPE":"U","NORAD_CAT_ID":46906,"ELEMENT_SET_NO":999,"REV_AT_EPOCH":29400,"BSTAR":0.00049583858,"MEAN_MOTION_DOT":0.0001256,"MEAN_MOTION_DDOT":0},{"OBJECT_NAME":"STARLINK-30130","OBJECT_ID":"2023-067K","EPOCH":"2026-03-08T23:28:59.065824","MEAN_MOTION":15.26744788,"ECCENTRICITY":0.00021899,"INCLINATION":43.0019,"RA_OF_ASC_NODE":274.8532,"ARG_OF_PERICENTER":263.0588,"MEAN_ANOMALY":97.0015,"EPHEMERIS_TYPE":0,"CLASSIFICATION_TYPE":"U","NORAD_CAT_ID":56697,"ELEMENT_SET_NO":999,"REV_AT_EPOCH":15533,"BSTAR":4.57425e-7,"MEAN_MOTION_DOT":-2.48e-6,"MEAN_MOTION_DDOT":0}]
